[Satellite]
VERSION=1.1
NAME=OCO 2
NICKNAME=OCO 2
TLE1=1 40059U 14035A   17186.27926058  .00000014  00000-0  13120-4 0  9999
TLE2=2 40059  98.2050 127.4009 0001005  73.8059 286.3250 14.57120685160018
